#dP2025  1 28  0  0  0.00000000      96 __u+U IGS20 EXT  IAC
## 2351 172800.00000000   900.00000000 60703 0.0000000000000
+   53   G01G02G03G04G05G06G07G08G09G10G11G12G13G14G15G16G17
+        G18G19G20G21G22G23G24G25G26G27G28G29G30G31G32R01R02
+        R03R04R05R06R07R08R09R11R12R14R15R16R17R18R19R20R21
+        R22R24  0  0  0  0  0  0  0  0  0  0  0  0  0  0  0
+          0  0  0  0  0  0  0  0  0  0  0  0  0  0  0  0  0
++         7  7  6  7  8  7  8  7  7  7  6  7  7  7  7  8  7
++         6  7  8  7  7  6  6  7  7  8  8  6  7  6  7  7  8
++         8  7 10  8  9  8  8  8  7  8  7  7  9  8  7  9  8
++         9  9  0  0  0  0  0  0  0  0  0  0  0  0  0  0  0
++         0  0  0  0  0  0  0  0  0  0  0  0  0  0  0  0  0
%c M  cc GPS ccc cccc cccc cccc cccc ccccc ccccc ccccc ccccc
%c cc cc ccc ccc cccc cccc cccc cccc ccccc ccccc ccccc ccccc
%f  0.0000000  0.000000000  0.00000000000  0.000000000000000
%f  0.0000000  0.000000000  0.00000000000  0.000000000000000
%i    0    0    0    0      0      0      0      0         0
%i    0    0    0    0      0      0      0      0         0
/* IAC                                ULTRA-RAPID PREDICTION
/* S/V CLOCKS ARE ALIGNED TO GNSS TIME                      
/* G:C1WC2W R:C1PC2P E:C1XC5X C:C2IC6I J:C1CC2S             
/* PCV:IGS20_2350 OL/AL:FES2004  NONE     YN ORB:CoN CLK:CoN
*  2025 01 28  6  0  0.00000000
PG01 -14266.616941  20945.352860  -7931.563351     82.060578
PG02 -13587.997666  22140.707386  -3903.886580   -257.119146
PG03  -7131.890325  13274.681090 -22023.256036    654.063895
PG04  -2125.696905  23464.074136 -12088.128962    518.674282
PG05  20846.134884  -6704.930237  14905.112276   -200.306068
PG06  16794.645869   1825.991464 -20460.443068   -149.053141
PG07    426.488992  19270.610535  18622.768959    -13.387407
PG08  -9216.749133  15306.621622  19368.649556    469.613945
PG09   6004.645558  25565.427046  -3821.242831    545.741293
PG10 -23280.016800 -10622.199513   7970.276936   -295.178095
PG11  21401.168600  -8607.998077 -13073.731881   -750.155197
PG12  10573.257312 -12394.443978 -21261.959059   -566.988378
PG13  13841.470148  -6176.317077  21553.575548    694.812223
PG14  20767.731694  12961.234609  10647.599668    588.188297
PG15   6713.027557 -17060.926316  18649.531483    256.809343
PG16 -24434.720044    122.814763  10584.239348    -67.011473
PG17  12740.328903  20394.409360 -10634.034488    453.555444
PG18  -1626.886649 -17712.452679  19681.274191   -656.042277
PG19  15445.539582  11914.707803 -18357.615603    591.404145
PG20  26231.276894  -1513.590780   3476.646867    366.736572
PG21 -17053.084388  19397.888973   2784.325086    101.706314
PG22  24084.291439  10289.609098   3625.210028    -94.466899
PG23 -11824.658592 -14949.735295  18640.419548    412.503988
PG24  13867.082982 -22266.262013  -2885.703323   -459.013127
PG25  -4060.170059 -16209.459096 -21058.204620    496.025558
PG26 -26522.835602  -3668.223707   -295.755759    -66.490110
PG27 -14888.144544   3018.383377  21492.027139    -32.419562
PG28 -16033.848761  -3681.183784 -20866.654583   -546.239528
PG29  -3605.173503 -26008.392938  -3582.587992   -543.096901
PG30  11215.949789  11188.656518  21468.058323   -229.255826
PG31 -20568.996861   4441.318521 -16664.485572   -216.869179
PG32 -15653.709274 -15948.071047 -14277.677912   -533.194594
PR01   -176.374703  15075.533303 -20573.524016    112.750510
PR02  11682.668275  21301.180525  -7608.328417    -38.034183
PR03  17756.331431  15219.122643  10163.048374    115.778243
PR04  13540.177695   1452.452667  21598.176367    274.556663
PR05   2399.614017 -13357.111549  21619.173778    144.490266
PR06 -14475.578880  -2817.160444 -20783.658460   -131.355105
PR07 -17751.094206 -15181.711605 -10270.385648     99.702910
PR08 -13515.304933  -1088.016392 -21549.936684     -6.299598
PR09  -5391.279080 -10463.019209 -22608.658702    234.655423
PR11 -25157.295690   4080.387054    815.287518     -4.256180
PR12 -14183.675507  10853.833360  18234.017043     50.125970
PR14  20921.601228   3783.026894  14112.435045     27.666094
PR15  24914.407914  -4800.978312  -2647.252059     71.757223
PR16  14334.528622 -10741.141110 -18174.943329     32.824558
PR17   8967.222441   6065.854309 -23086.765555    161.320150
PR18  13806.722243 -10676.567751 -18607.251696    184.156327
PR19  13074.847511 -20894.828067  -6566.635558   -307.085195
PR20   2775.381894 -20928.563220  14362.684246   -125.079865
PR21  -8217.190544  -7399.340534  22988.168623   -171.894380
PR22 -14435.724395  11361.133959  17719.188663    -58.044292
PR24  -1156.700169  20898.118997 -14568.534492    -90.018172
*  2025 01 28  6 15  0.00000000
PG01 -14973.946511  21302.589645  -5211.119049     82.085168
PG02 -14004.962328  22255.549879  -1031.201291   -257.110771
PG03  -9523.672167  12771.183481 -21393.067384    654.069887
PG04  -2770.583372  22071.760111 -14374.478598    518.679448
PG05  22407.954525  -6321.152985  12670.660366   -200.307035
PG06  15241.396454   3655.768190 -21395.224842   -149.076489
PG07   -978.793272  20646.553543  16967.995605    -13.387379
PG08 -10194.628686  13199.311301  20434.831128    469.620529
PG09   5560.152264  25106.926367  -6598.126914    545.754250
PG10 -22252.776178 -10563.929508  10594.957269   -295.192114
PG11  20424.668109  -7291.768542 -15253.127322   -750.153725
PG12  12803.749712 -11738.677521 -20373.443965   -566.990305
PG13  14361.507466  -3701.300027  21798.017719    694.813221
PG14  19406.225663  12920.587776  12993.390545    588.194591
PG15   7949.542243 -15101.123001  19799.285062    256.813335
PG16 -25437.796910   -372.800565   8030.437941    -67.003151
PG17  12819.188372  21543.422869  -8037.948504    453.539216
PG18    -99.233272 -19253.752113  18225.625505   -656.040676
PG19  15787.770573  13851.413714 -16652.256170    591.408154
PG20  26457.076985  -1237.760483    634.361557    366.736318
PG21 -17062.840142  18831.185231   5651.041989    101.706739
PG22  23493.675192  10406.863685   6418.347134    -94.468508
PG23  -9647.155644 -14685.509313  20034.892102    412.510649
PG24  14232.394389 -22161.399971    -67.206205   -459.009116
PG25  -1718.040314 -15867.505042 -21618.690147    496.024987
PG26 -26322.981958  -3962.437618  -3056.316064    -66.504510
PG27 -15729.118851    661.095944  21136.020593    -32.419024
PG28 -14561.620876  -5604.510310 -21508.219140   -546.247701
PG29  -3227.966534 -25523.720336  -6384.027409   -543.093739
PG30   9618.882590  13005.935792  21191.139561   -229.248091
PG31 -19373.038797   2896.294046 -18345.245139   -216.868391
PG32 -16001.066983 -17450.931138 -12008.517604   -533.187916
PR01  -1859.045681  13069.947073 -21822.931970    112.751599
PR02  11093.314038  20321.874201 -10577.296934    -38.033848
PR03  18552.816369  15941.680551   7173.413384    115.779101
PR04  15219.906095   3405.331702  20212.256161    274.558086
PR05   4061.631211 -11197.030646  22574.815472    144.490782
PR06 -16124.453308  -4661.740788 -19176.227615   -131.354811
PR07 -18566.580714 -15921.322058  -7294.454391     99.703593
PR08 -15218.221041  -3041.513584 -20191.982761     -6.299520
PR09  -2643.287310 -11028.644558 -22833.850981    234.657354
PR11 -25035.435491   4203.442157  -2394.464462     -4.259037
PR12 -16251.795031  11305.396892  16109.098902     50.126386
PR14  19051.343781   4040.745625  16488.458310     27.666097
PR15  25021.194881  -4948.855806    551.341505     71.756946
PR16  16393.555766 -11211.983811 -16025.924968     32.824834
PR17   7996.669380   8717.200551 -22592.335956    161.323038
PR18  12821.803263  -8475.067794 -20356.228879    184.158020
PR19  12492.815404 -20056.608289  -9607.380123   -307.086416
PR20   3245.597936 -22474.810914  11678.088574   -125.080303
PR21  -7240.931883 -10021.315406  22311.151659   -171.897223
PR22 -13472.781114   9273.969716  19597.557851    -58.045968
PR24  -1617.536478  22475.870094 -11944.283237    -90.019676
EOF
